start=new Date('2022-05-19T00:00:00.000Z').valueOf();
sats=[{"MEAN_MOTION":"15.06384649","ELEMENT_SET_NO":"999","SITE":"AFETR","OBJECT_TYPE":"PAYLOAD","MEAN_MOTION_DOT":"-0.00000772","PERIAPSIS":"545.947","GP_ID":"203918888","SEMIMAJOR_AXIS":"6925.396","REF_FRAME":"TEME","LAUNCH_DATE":"2021-05-15","APOAPSIS":"548.574","CENTER_NAME":"EARTH","FILE":"3452789","MEAN_ELEMENT_THEORY":"SGP4","REV_AT_EPOCH":"5585","RCS_SIZE":"LARGE","TIME_SYSTEM":"UTC","NORAD_CAT_ID":"48587","ECCENTRICITY":"0.00018970","EPOCH":"2022-05-19T01:07:04.862784","RA_OF_ASC_NODE":"264.4516","ARG_OF_PERICENTER":"89.1083","TLE_LINE2":"2 48587  53.0576 264.4516 0001897  89.1083 271.0124 15.06384649 55858","MEAN_MOTION_DDOT":"0.0000000000000","OBJECT_NAME":"STARLINK-2242","DECAY_DATE":null,"OBJECT_ID":"2021-041AL","CLASSIFICATION_TYPE":"U","INCLINATION":"53.0576","BSTAR":"-0.00003292200000","EPHEMERIS_TYPE":"0","PERIOD":"95.593","TLE_LINE1":"1 48587U 21041AL  22139.04658406 -.00000772  00000-0 -32922-4 0  9990","COUNTRY_CODE":"US","MEAN_ANOMALY":"271.0124"},{"SITE":"AFETR","OBJECT_TYPE":"PAYLOAD","MEAN_MOTION":"15.06400389","ELEMENT_SET_NO":"999","SEMIMAJOR_AXIS":"6925.347","REF_FRAME":"TEME","LAUNCH_DATE":"2021-05-15","APOAPSIS":"548.165","MEAN_MOTION_DOT":"0.00003455","PERIAPSIS":"546.260","GP_ID":"203918413","FILE":"3452790","MEAN_ELEMENT_THEORY":"SGP4","CENTER_NAME":"EARTH","RCS_SIZE":"LARGE","TIME_SYSTEM":"UTC","NORAD_CAT_ID":"48588","REV_AT_EPOCH":"5604","RA_OF_ASC_NODE":"254.5550","ARG_OF_PERICENTER":"69.4381","ECCENTRICITY":"0.00013750","EPOCH":"2022-05-19T00:36:32.889888","OBJECT_NAME":"STARLINK-2244","DECAY_DATE":null,"MEAN_MOTION_DDOT":"0.0000000000000","TLE_LINE2":"2 48588  53.0551 254.5550 0001375  69.4381 290.6755 15.06400389 56042","BSTAR":"0.00025074000000","OBJECT_ID":"2021-041AM","CLASSIFICATION_TYPE":"U","INCLINATION":"53.0551","PERIOD":"95.592","TLE_LINE1":"1 48588U 21041AM  22139.02538067  .00003455  00000-0  25074-3 0  9997","COUNTRY_CODE":"US","MEAN_ANOMALY":"290.6755","EPHEMERIS_TYPE":"0"},{"RA_OF_ASC_NODE":"256.3629","ARG_OF_PERICENTER":"73.3792","ECCENTRICITY":"0.00014160","EPOCH":"2022-05-18T14:58:00.492384","DECAY_DATE":null,"OBJECT_NAME":"STARLINK-2245","TLE_LINE2":"2 48589  53.0549 256.3629 0001416  73.3792 286.7353 15.06410029 55538","MEAN_MOTION_DDOT":"0.0000000000000","BSTAR":"0.00042088000000","CLASSIFICATION_TYPE":"U","OBJECT_ID":"2021-041AN","INCLINATION":"53.0549","COUNTRY_CODE":"US","PERIOD":"95.592","TLE_LINE1":"1 48589U 21041AN  22138.62361681  .00005995  00000-0  42088-3 0  9994","MEAN_ANOMALY":"286.7353","EPHEMERIS_TYPE":"0","SITE":"AFETR","OBJECT_TYPE":"PAYLOAD","MEAN_MOTION":"15.06410029","ELEMENT_SET_NO":"999","REF_FRAME":"TEME","SEMIMAJOR_AXIS":"6925.318","APOAPSIS":"548.163","LAUNCH_DATE":"2021-05-15","GP_ID":"203872064","PERIAPSIS":"546.202","MEAN_MOTION_DOT":"0.00005995","FILE":"3451871","MEAN_ELEMENT_THEORY":"SGP4","CENTER_NAME":"EARTH","TIME_SYSTEM":"UTC","RCS_SIZE":"LARGE","NORAD_CAT_ID":"48589","REV_AT_EPOCH":"5553"},{"OBJECT_ID":"2021-041AQ","CLASSIFICATION_TYPE":"U","INCLINATION":"53.0589","BSTAR":"0.00004543500000","EPHEMERIS_TYPE":"0","PERIOD":"95.592","TLE_LINE1":"1 48591U 21041AQ  22138.80696859  .00000395  00000-0  45435-4 0  9994","COUNTRY_CODE":"US","MEAN_ANOMALY":"288.3123","ECCENTRICITY":"0.00016360","EPOCH":"2022-05-18T19:22:02.086176","RA_OF_ASC_NODE":"255.5309","ARG_OF_PERICENTER":"71.8044","MEAN_MOTION_DDOT":"0.0000000000000","TLE_LINE2":"2 48591  53.0589 255.5309 0001636  71.8044 288.3123 15.06405112 56461","OBJECT_NAME":"STARLINK-2248","DECAY_DATE":null,"CENTER_NAME":"EARTH","FILE":"3452356","MEAN_ELEMENT_THEORY":"SGP4","REV_AT_EPOCH":"5646","RCS_SIZE":"LARGE","TIME_SYSTEM":"UTC","NORAD_CAT_ID":"48591","MEAN_MOTION":"15.06405112","ELEMENT_SET_NO":"999","SITE":"AFETR","OBJECT_TYPE":"PAYLOAD","PERIAPSIS":"546.065","MEAN_MOTION_DOT":"0.00000395","GP_ID":"203904736","SEMIMAJOR_AXIS":"6925.333","REF_FRAME":"TEME","LAUNCH_DATE":"2021-05-15","APOAPSIS":"548.331"},{"TLE_LINE2":"2 48592  53.0534 265.8082 0001624  72.2472 287.8694 15.06408617 55415","MEAN_MOTION_DDOT":"0.0000000000000","DECAY_DATE":null,"OBJECT_NAME":"STARLINK-2249","EPOCH":"2022-05-18T17:57:08.572032","ECCENTRICITY":"0.00016240","ARG_OF_PERICENTER":"72.2472","RA_OF_ASC_NODE":"265.8082","EPHEMERIS_TYPE":"0","MEAN_ANOMALY":"287.8694","COUNTRY_CODE":"US","TLE_LINE1":"1 48592U 21041AR  22138.74801588  .00005144  00000-0  36388-3 0  9998","PERIOD":"95.592","INCLINATION":"53.0534","CLASSIFICATION_TYPE":"U","OBJECT_ID":"2021-041AR","BSTAR":"0.00036388000000","GP_ID":"203904985","MEAN_MOTION_DOT":"0.00005144","PERIAPSIS":"546.062","APOAPSIS":"548.312","LAUNCH_DATE":"2021-05-15","REF_FRAME":"TEME","SEMIMAJOR_AXIS":"6925.322","ELEMENT_SET_NO":"999","MEAN_MOTION":"15.06408617","OBJECT_TYPE":"PAYLOAD","SITE":"AFETR","REV_AT_EPOCH":"5541","NORAD_CAT_ID":"48592","TIME_SYSTEM":"UTC","RCS_SIZE":"LARGE","CENTER_NAME":"EARTH","MEAN_ELEMENT_THEORY":"SGP4","FILE":"3452356"},{"ELEMENT_SET_NO":"999","MEAN_MOTION":"15.06400358","OBJECT_TYPE":"PAYLOAD","SITE":"AFETR","MEAN_MOTION_DOT":"0.00003959","PERIAPSIS":"545.904","GP_ID":"203918924","LAUNCH_DATE":"2021-05-15","APOAPSIS":"548.521","SEMIMAJOR_AXIS":"6925.347","REF_FRAME":"TEME","CENTER_NAME":"EARTH","MEAN_ELEMENT_THEORY":"SGP4","FILE":"3452791","REV_AT_EPOCH":"5576","NORAD_CAT_ID":"48593","RCS_SIZE":"LARGE","TIME_SYSTEM":"UTC","EPOCH":"2022-05-19T02:05:27.687264","ECCENTRICITY":"0.00018890","ARG_OF_PERICENTER":"68.5232","RA_OF_ASC_NODE":"264.2868","TLE_LINE2":"2 48593  53.0509 264.2868 0001889  68.5232 291.5959 15.06400358 55766","MEAN_MOTION_DDOT":"0.0000000000000","OBJECT_NAME":"STARLINK-2250","DECAY_DATE":null,"INCLINATION":"53.0509","OBJECT_ID":"2021-041AS","CLASSIFICATION_TYPE":"U","BSTAR":"0.00028456000000","EPHEMERIS_TYPE":"0","MEAN_ANOMALY":"291.5959","PERIOD":"95.592","TLE_LINE1":"1 48593U 21041AS  22139.08712601  .00003959  00000-0  28456-3 0  9993","COUNTRY_CODE":"US"},{"OBJECT_ID":"2021-041AT","CLASSIFICATION_TYPE":"U","INCLINATION":"53.0536","BSTAR":"0.00074210000000","EPHEMERIS_TYPE":"0","TLE_LINE1":"1 48594U 21041AT  22139.25001157  .00010786  00000-0  74210-3 0  9995","PERIOD":"95.593","COUNTRY_CODE":"US","MEAN_ANOMALY":"271.7600","ECCENTRICITY":"0.00014190","EPOCH":"2022-05-19T06:00:00.999648","RA_OF_ASC_NODE":"233.6268","ARG_OF_PERICENTER":"97.1026","TLE_LINE2":"2 48594  53.0536 233.6268 0001419  97.1026 271.7600 15.06388024 56364","MEAN_MOTION_DDOT":"0.0000000000000","OBJECT_NAME":"STARLINK-2251","DECAY_DATE":null,"CENTER_NAME":"EARTH","FILE":"3452791","MEAN_ELEMENT_THEORY":"SGP4","REV_AT_EPOCH":"5636","RCS_SIZE":"LARGE","TIME_SYSTEM":"UTC","NORAD_CAT_ID":"48594","MEAN_MOTION":"15.06388024","ELEMENT_SET_NO":"999","SITE":"AFETR","OBJECT_TYPE":"PAYLOAD","MEAN_MOTION_DOT":"0.00010786","PERIAPSIS":"546.268","GP_ID":"203918434","SEMIMAJOR_AXIS":"6925.385","REF_FRAME":"TEME","LAUNCH_DATE":"2021-05-15","APOAPSIS":"548.233"},{"BSTAR":"-0.00002845400000","CLASSIFICATION_TYPE":"U","OBJECT_ID":"2021-041AU","INCLINATION":"53.0509","COUNTRY_CODE":"US","PERIOD":"95.592","TLE_LINE1":"1 48595U 21041AU  22138.86965828 -.00000706  00000-0 -28454-4 0  9999","MEAN_ANOMALY":"304.1845","EPHEMERIS_TYPE":"0","RA_OF_ASC_NODE":"265.2574","ARG_OF_PERICENTER":"55.9369","ECCENTRICITY":"0.00023700","EPOCH":"2022-05-18T20:52:18.475392","DECAY_DATE":null,"OBJECT_NAME":"STARLINK-2252","MEAN_MOTION_DDOT":"0.0000000000000","TLE_LINE2":"2 48595  53.0509 265.2574 0002370  55.9369 304.1845 15.06397732 56701","FILE":"3452791","MEAN_ELEMENT_THEORY":"SGP4","CENTER_NAME":"EARTH","TIME_SYSTEM":"UTC","RCS_SIZE":"LARGE","NORAD_CAT_ID":"48595","REV_AT_EPOCH":"5670","SITE":"AFETR","OBJECT_TYPE":"PAYLOAD","MEAN_MOTION":"15.06397732","ELEMENT_SET_NO":"999","REF_FRAME":"TEME","SEMIMAJOR_AXIS":"6925.356","APOAPSIS":"548.862","LAUNCH_DATE":"2021-05-15","GP_ID":"203918435","PERIAPSIS":"545.579","MEAN_MOTION_DOT":"-0.00000706"},{"TLE_LINE2":"2 48596  53.0548 265.4609 0001409  61.4708 298.6423 15.06412514 55880","MEAN_MOTION_DDOT":"0.0000000000000","OBJECT_NAME":"STARLINK-2253","DECAY_DATE":null,"ECCENTRICITY":"0.00014090","EPOCH":"2022-05-18T19:48:36.003744","RA_OF_ASC_NODE":"265.4609","ARG_OF_PERICENTER":"61.4708","EPHEMERIS_TYPE":"0","PERIOD":"95.591","TLE_LINE1":"1 48596U 21041AV  22138.82541671  .00000851  00000-0  76017-4 0  9999","COUNTRY_CODE":"US","MEAN_ANOMALY":"298.6423","OBJECT_ID":"2021-041AV","CLASSIFICATION_TYPE":"U","INCLINATION":"53.0548","BSTAR":"0.00007601700000","MEAN_MOTION_DOT":"0.00000851","PERIAPSIS":"546.199","GP_ID":"203904487","SEMIMAJOR_AXIS":"6925.310","REF_FRAME":"TEME","APOAPSIS":"548.151","LAUNCH_DATE":"2021-05-15","MEAN_MOTION":"15.06412514","ELEMENT_SET_NO":"999","SITE":"AFETR","OBJECT_TYPE":"PAYLOAD","REV_AT_EPOCH":"5588","RCS_SIZE":"LARGE","TIME_SYSTEM":"UTC","NORAD_CAT_ID":"48596","CENTER_NAME":"EARTH","FILE":"3452356","MEAN_ELEMENT_THEORY":"SGP4"},{"FILE":"3452356","MEAN_ELEMENT_THEORY":"SGP4","CENTER_NAME":"EARTH","RCS_SIZE":"LARGE","TIME_SYSTEM":"UTC","NORAD_CAT_ID":"48597","REV_AT_EPOCH":"5666","SITE":"AFETR","OBJECT_TYPE":"PAYLOAD","MEAN_MOTION":"15.06402507","ELEMENT_SET_NO":"999","SEMIMAJOR_AXIS":"6925.341","REF_FRAME":"TEME","LAUNCH_DATE":"2021-05-15","APOAPSIS":"548.118","PERIAPSIS":"546.294","MEAN_MOTION_DOT":"-0.00000421","GP_ID":"203905737","BSTAR":"-0.00000937290000","OBJECT_ID":"2021-041AW","CLASSIFICATION_TYPE":"U","INCLINATION":"53.0542","PERIOD":"95.592","TLE_LINE1":"1 48597U 21041AW  22138.63375364 -.00000421  00000-0 -93729-5 0  9998","COUNTRY_CODE":"US","MEAN_ANOMALY":"288.9017","EPHEMERIS_TYPE":"0","RA_OF_ASC_NODE":"266.3232","ARG_OF_PERICENTER":"71.2115","ECCENTRICITY":"0.00013170","EPOCH":"2022-05-18T15:12:36.314496","OBJECT_NAME":"STARLINK-2255","DECAY_DATE":null,"MEAN_MOTION_DDOT":"0.0000000000000","TLE_LINE2":"2 48597  53.0542 266.3232 0001317  71.2115 288.9017 15.06402507 56665"}];
